#aV2015 11  4  0  0  0.00000000     288 DD+AD WGS84 FIT  NGA
## 1869 259200.00000000   300.00000000 57330 0.0000000000000
+   31     1  2  3  4  5  6  7  8  9 11 12 13 14 15 16 17 18
+         19 20 21 22 23 24 25 26 27 28 29 30 31 32  0  0  0
+          0  0  0  0  0  0  0  0  0  0  0  0  0  0  0  0  0
+          0  0  0  0  0  0  0  0  0  0  0  0  0  0  0  0  0
+          0  0  0  0  0  0  0  0  0  0  0  0  0  0  0  0  0
++         2  2  2  2  2  2  2  2  2  2  2  2  2  2  2  2  2
++         2  2  2  2  2  2  2  2  2  2  2  2  2  2  0  0  0
++         0  0  0  0  0  0  0  0  0  0  0  0  0  0  0  0  0
++         0  0  0  0  0  0  0  0  0  0  0  0  0  0  0  0  0
++         0  0  0  0  0  0  0  0  0  0  0  0  0  0  0  0  0
%c cc cc ccc ccc cccc cccc cccc cccc ccccc ccccc ccccc ccccc
%c cc cc ccc ccc cccc cccc cccc cccc ccccc ccccc ccccc ccccc
%f  0.0000000  0.000000000  0.00000000000  0.000000000000000
%f  0.0000000  0.000000000  0.00000000000  0.000000000000000
%i    0    0    0    0      0      0      0      0         0
%i    0    0    0    0      0      0      0      0         0
/*      NGA, ST. LOUIS,MO.                                  
/*   EPHEMERIS COMPUTED FROM 2 DAYS OF DATA                 
/*   EPOCHA v2.4 SMOOTHER                                   
/*   G1762 IERS2010 SATAF SATAPC                            
*  2015 11  4 23  5  0.00000000
P  1 -13359.383487  14549.891068  17582.647312      3.779417                    
V  1    -77.733695 -22615.949189  18776.955709      0.008019                    
P  2  13913.774639  10827.171929 -19594.956690    594.899515                    
V  2  -2061.075827  25630.010075  12023.206913      0.011046                    
P  3 -23018.407667  13068.653235  -2311.281173     16.245451                    
V  3  -3886.170000  -1256.466500  31530.349522     -0.027963                    
P  4 -15409.269581   4315.405037  20809.827077    -41.870189                    
V  4    497.119256 -27371.495255   6195.776358     -0.054120                    
P  5  21955.619868   1173.417893 -15103.066785   -178.004841                    
V  5 -16026.321188  10479.381045 -22387.323046      0.038544                    
P  6   7726.236177  21758.165435 -13136.664233     89.332508                    
V  6  -3297.061410  16490.059175  25367.124981      0.068212                    
P  7  -5992.045389  25081.729655  -5299.492723    481.215972                    
V  7  -2190.706068  -7195.094710 -31213.866383     -0.009642                    
P  8 -21672.754817  -1566.981638  15313.936932    -11.272712                    
V  8 -15023.289962 -12380.568586 -22606.117383     -0.014507                    
P  9  -3565.416916  15588.916015 -21214.598095      5.722403                    
V  9 -22788.508425 -14366.888262  -6741.067303      0.051998                    
P 11 -13806.355803   9735.791463  19933.255779   -614.278913                    
V 11  -8698.024226 -25440.396510   6307.151793     -0.022109                    
P 12  24247.759285 -10546.641024   -172.593486    342.707591                    
V 12    896.749507   1853.147030  32538.878032      0.031727                    
P 13  22345.126245  11251.889332   8631.897248   -161.892590                    
V 13   6995.420926   9006.965999 -29495.032783     -0.028211                    
P 14 -11167.464051 -20422.903985  13182.220732     23.757494                    
V 14  13980.472953   8533.971154  25409.471455     -0.024077                    
P 15  21396.683150   -888.918236  15815.911605   -280.466708                    
V 15  16179.455188  12351.945271 -20716.021228     -0.019676                    
P 16 -21508.887772  -2358.265650 -15733.695481    -69.686416                    
V 16  17770.814916  -8389.893421 -22794.701734      0.036929                    
P 17  11818.770252  20012.685996  13355.770697   -193.004121                    
V 17 -14139.061231  -8372.274136  25447.374493     -0.011697                    
P 18   8338.146053 -18870.951504  17086.180066    449.721307                    
V 18  19698.386639  -7561.066566 -18802.123243      0.037774                    
P 19  -7045.586761  13329.425137  21626.713312   -522.376031                    
V 19 -21962.892932 -17330.749471   3910.099733     -0.004570                    
P 20  23412.328676 -12563.889682  -1430.912099    368.500307                    
V 20    534.306389   4127.619292 -30852.732762      0.029162                    
P 21   2131.279804 -26227.634256  -1216.517221   -491.348516                    
V 21   3841.412563   2592.551425 -31321.737324     -0.024928                    
P 22  -5917.272650 -15076.358281  21279.290327    407.462064                    
V 22  23784.118429 -12007.032566  -2092.560940      0.033924                    
P 23 -16314.009738   6289.704471 -19942.638281   -142.671453                    
V 23 -20669.598373 -15174.641073  11591.586993     -0.020633                    
P 24  14160.638454 -11792.164027  19031.637652     -7.450810                    
V 24    374.669923  24374.384993  14961.922117     -0.006285                    
P 25  16612.793600 -16965.916609 -11820.554833    -62.625935                    
V 25  14255.197641  -4741.711321  27229.303607     -0.056509                    
P 26 -13493.090457  -9537.622172 -20794.525905   -109.820751                    
V 26  23296.650790 -12463.903538  -9384.468351     -0.147445                    
P 27 -23555.522226 -11057.018315   5625.935317     33.208994                    
V 27  -4632.640644  -5931.389695 -30790.125013      0.031592                    
P 28    892.413030  15394.465565  22248.443522    479.199621                    
V 28 -24868.225068   9656.012343  -5928.117700      0.027077                    
P 29   6756.277036 -13462.626820 -21864.250221    642.966055                    
V 29  22291.961338  16525.087423  -3249.600318      0.017259                    
P 30    437.387533  25893.679813   5700.456207     52.002241                    
V 30  -3976.998727   6772.905676 -30542.802226      0.057878                    
P 31  -7536.190873 -20925.312041 -14122.178790    296.543238                    
V 31   3957.161294 -17958.056371  24613.798676     -0.014480                    
P 32 -24756.299341   3545.820109   8026.293991      6.922381                    
V 32   8446.562034  -7061.367108  29486.521404      0.117111                    
EOF
